STARLINK-34635          
1 64761U 25147G   25240.77880600  .00060328  00000+0  15060-2 0  9994
2 64761  53.1606  60.4129 0001021  60.7285 299.3822 15.39625745  9192
STARLINK-34638          
1 64762U 25147H   25241.22392456  .00070387  00000+0  17524-2 0  9996
2 64762  53.1611  58.2132 0001180  81.3225 278.7913 15.39638931  9268
STARLINK-34534          
1 64763U 25147J   25241.21000050  .00049304  00000+0  12332-2 0  9999
2 64763  53.1613  58.1246 0001040  82.7449 277.3674 15.39656089  9267
STARLINK-34261          
1 64764U 25147K   25241.20535356  .00064221  00000+0  16006-2 0  9998
2 64764  53.1607  58.0956 0000599  71.9624 288.1446 15.39646905  9309
STARLINK-34566          
1 64765U 25147L   25241.19606288  .00046610  00000+0  11682-2 0  9997
2 64765  53.1595  58.0355 0001234  73.6479 286.4661 15.39618751  9266
STARLINK-34645          
1 64766U 25147M   25241.21927407  .00071432  00000+0  17768-2 0  9991
2 64766  53.1613  58.1827 0000722  61.8600 298.2478 15.39659293  9262
STARLINK-34639          
1 64767U 25147N   25241.18610502  .00039886  00000+0  10007-2 0  9999
2 64767  53.1597  57.9712 0000982  81.3848 278.7268 15.39658944  9210
STARLINK-34609          
1 64768U 25147P   25241.21997456  .00064568  00000+0  14666-2 0  9990
2 64768  53.1622  57.4722 0001710  18.3760 341.7308 15.42446759  9274
STARLINK-34246          
1 64769U 25147Q   25240.91294996  .00058832  00000+0  14688-2 0  9997
2 64769  53.1603  59.8262 0000900  67.8249 292.2852 15.39634463  9215
STARLINK-34618          
1 64770U 25147R   25240.78776571  .00046683  00000+0  11691-2 0  9990
2 64770  53.1598  60.4674 0001095  34.6688 325.4388 15.39641175  9121
STARLINK-34541          
1 64771U 25147S   25241.22823396  .00051754  00000+0  12942-2 0  9994
2 64771  53.1610  58.2386 0000978  81.4382 278.6734 15.39639045  9196
STARLINK-34652          
1 64772U 25147T   25241.22359263  .00070374  00000+0  17519-2 0  9996
2 64772  53.1609  58.2092 0000938  69.1239 290.9866 15.39641815  9268
STARLINK-34612          
1 64773U 25147U   25240.77847426  .00055189  00000+0  13796-2 0  9999
2 64773  53.1606  60.4087 0001011  99.1066 261.0054 15.39622192  9196
STARLINK-34621          
1 64774U 25147V   25241.21895121  .00076752  00000+0  19081-2 0  9997
2 64774  53.1611  58.1794 0001272  76.5061 283.6086 15.39642707  9194
STARLINK-34657          
1 64775U 25147W   25241.21430308  .00069518  00000+0  17311-2 0  9996
2 64775  53.1610  58.1477 0000830  88.0082 272.1018 15.39638586  9268
STARLINK-34637          
1 64776U 25147X   25240.82017193  .00046512  00000+0  11650-2 0  9995
2 64776  53.1611  59.9538 0000672  89.8161 270.2921 15.39638269  9134
