[{"OBJECT_NAME":"STARLINK-34635","OBJECT_ID":"2025-147G","EPOCH":"2025-08-28T18:41:28.838400","MEAN_MOTION":15.39625745,"ECCENTRICITY":0.00010214,"INCLINATION":53.1606,"RA_OF_ASC_NODE":60.4129,"ARG_OF_PERICENTER":60.7285,"MEAN_ANOMALY":299.3822,"EPHEMERIS_TYPE":0,"CLASSIFICATION_TYPE":"U","NORAD_CAT_ID":64761,"ELEMENT_SET_NO":999,"REV_AT_EPOCH":919,"BSTAR":0.0015059836,"MEAN_MOTION_DOT":0.00060328,"MEAN_MOTION_DDOT":0},{"OBJECT_NAME":"STARLINK-34638","OBJECT_ID":"2025-147H","EPOCH":"2025-08-29T05:22:27.081984","MEAN_MOTION":15.39638931,"ECCENTRICITY":0.00011801,"INCLINATION":53.1611,"RA_OF_ASC_NODE":58.2132,"ARG_OF_PERICENTER":81.3225,"MEAN_ANOMALY":278.7913,"EPHEMERIS_TYPE":0,"CLASSIFICATION_TYPE":"U","NORAD_CAT_ID":64762,"ELEMENT_SET_NO":999,"REV_AT_EPOCH":926,"BSTAR":0.0017523712,"MEAN_MOTION_DOT":0.00070387,"MEAN_MOTION_DDOT":0},{"OBJECT_NAME":"STARLINK-34534","OBJECT_ID":"2025-147J","EPOCH":"2025-08-29T05:02:24.043200","MEAN_MOTION":15.39656089,"ECCENTRICITY":0.00010403,"INCLINATION":53.1613,"RA_OF_ASC_NODE":58.1246,"ARG_OF_PERICENTER":82.7449,"MEAN_ANOMALY":277.3674,"EPHEMERIS_TYPE":0,"CLASSIFICATION_TYPE":"U","NORAD_CAT_ID":64763,"ELEMENT_SET_NO":999,"REV_AT_EPOCH":926,"BSTAR":0.0012331702,"MEAN_MOTION_DOT":0.00049304,"MEAN_MOTION_DDOT":0},{"OBJECT_NAME":"STARLINK-34261","OBJECT_ID":"2025-147K","EPOCH":"2025-08-29T04:55:42.547584","MEAN_MOTION":15.39646905,"ECCENTRICITY":5.995e-5,"INCLINATION":53.1607,"RA_OF_ASC_NODE":58.0956,"ARG_OF_PERICENTER":71.9624,"MEAN_ANOMALY":288.1446,"EPHEMERIS_TYPE":0,"CLASSIFICATION_TYPE":"U","NORAD_CAT_ID":64764,"ELEMENT_SET_NO":999,"REV_AT_EPOCH":930,"BSTAR":0.0016006056,"MEAN_MOTION_DOT":0.00064221,"MEAN_MOTION_DDOT":0},{"OBJECT_NAME":"STARLINK-34566","OBJECT_ID":"2025-147L","EPOCH":"2025-08-29T04:42:19.832832","MEAN_MOTION":15.39618751,"ECCENTRICITY":0.00012348,"INCLINATION":53.1595,"RA_OF_ASC_NODE":58.0355,"ARG_OF_PERICENTER":73.6479,"MEAN_ANOMALY":286.4661,"EPHEMERIS_TYPE":0,"CLASSIFICATION_TYPE":"U","NORAD_CAT_ID":64765,"ELEMENT_SET_NO":999,"REV_AT_EPOCH":926,"BSTAR":0.0011681516,"MEAN_MOTION_DOT":0.0004661,"MEAN_MOTION_DDOT":0},{"OBJECT_NAME":"STARLINK-34645","OBJECT_ID":"2025-147M","EPOCH":"2025-08-29T05:15:45.279648","MEAN_MOTION":15.39659293,"ECCENTRICITY":7.221e-5,"INCLINATION":53.1613,"RA_OF_ASC_NODE":58.1827,"ARG_OF_PERICENTER":61.86,"MEAN_ANOMALY":298.2478,"EPHEMERIS_TYPE":0,"CLASSIFICATION_TYPE":"U","NORAD_CAT_ID":64766,"ELEMENT_SET_NO":999,"REV_AT_EPOCH":926,"BSTAR":0.001776797,"MEAN_MOTION_DOT":0.00071432,"MEAN_MOTION_DDOT":0},{"OBJECT_NAME":"STARLINK-34639","OBJECT_ID":"2025-147N","EPOCH":"2025-08-29T04:27:59.473728","MEAN_MOTION":15.39658944,"ECCENTRICITY":9.822e-5,"INCLINATION":53.1597,"RA_OF_ASC_NODE":57.9712,"ARG_OF_PERICENTER":81.3848,"MEAN_ANOMALY":278.7268,"EPHEMERIS_TYPE":0,"CLASSIFICATION_TYPE":"U","NORAD_CAT_ID":64767,"ELEMENT_SET_NO":999,"REV_AT_EPOCH":921,"BSTAR":0.0010006536,"MEAN_MOTION_DOT":0.00039886,"MEAN_MOTION_DDOT":0},{"OBJECT_NAME":"STARLINK-34609","OBJECT_ID":"2025-147P","EPOCH":"2025-08-29T05:16:45.801984","MEAN_MOTION":15.42446759,"ECCENTRICITY":0.00017107,"INCLINATION":53.1622,"RA_OF_ASC_NODE":57.4722,"ARG_OF_PERICENTER":18.376,"MEAN_ANOMALY":341.7308,"EPHEMERIS_TYPE":0,"CLASSIFICATION_TYPE":"U","NORAD_CAT_ID":64768,"ELEMENT_SET_NO":999,"REV_AT_EPOCH":927,"BSTAR":0.0014666126,"MEAN_MOTION_DOT":0.00064568,"MEAN_MOTION_DDOT":0},{"OBJECT_NAME":"STARLINK-34246","OBJECT_ID":"2025-147Q","EPOCH":"2025-08-28T21:54:38.876544","MEAN_MOTION":15.39634463,"ECCENTRICITY":9.0e-5,"INCLINATION":53.1603,"RA_OF_ASC_NODE":59.8262,"ARG_OF_PERICENTER":67.8249,"MEAN_ANOMALY":292.2852,"EPHEMERIS_TYPE":0,"CLASSIFICATION_TYPE":"U","NORAD_CAT_ID":64769,"ELEMENT_SET_NO":999,"REV_AT_EPOCH":921,"BSTAR":0.0014687687,"MEAN_MOTION_DOT":0.00058832,"MEAN_MOTION_DDOT":0},{"OBJECT_NAME":"STARLINK-34618","OBJECT_ID":"2025-147R","EPOCH":"2025-08-28T18:54:22.957344","MEAN_MOTION":15.39641175,"ECCENTRICITY":0.00010952,"INCLINATION":53.1598,"RA_OF_ASC_NODE":60.4674,"ARG_OF_PERICENTER":34.6688,"MEAN_ANOMALY":325.4388,"EPHEMERIS_TYPE":0,"CLASSIFICATION_TYPE":"U","NORAD_CAT_ID":64770,"ELEMENT_SET_NO":999,"REV_AT_EPOCH":912,"BSTAR":0.0011691089,"MEAN_MOTION_DOT":0.00046683,"MEAN_MOTION_DDOT":0},{"OBJECT_NAME":"STARLINK-34541","OBJECT_ID":"2025-147S","EPOCH":"2025-08-29T05:28:39.414144","MEAN_MOTION":15.39639045,"ECCENTRICITY":9.789e-5,"INCLINATION":53.161,"RA_OF_ASC_NODE":58.2386,"ARG_OF_PERICENTER":81.4382,"MEAN_ANOMALY":278.6734,"EPHEMERIS_TYPE":0,"CLASSIFICATION_TYPE":"U","NORAD_CAT_ID":64771,"ELEMENT_SET_NO":999,"REV_AT_EPOCH":919,"BSTAR":0.0012942495,"MEAN_MOTION_DOT":0.00051754,"MEAN_MOTION_DDOT":0},{"OBJECT_NAME":"STARLINK-34652","OBJECT_ID":"2025-147T","EPOCH":"2025-08-29T05:21:58.403232","MEAN_MOTION":15.39641815,"ECCENTRICITY":9.382e-5,"INCLINATION":53.1609,"RA_OF_ASC_NODE":58.2092,"ARG_OF_PERICENTER":69.1239,"MEAN_ANOMALY":290.9866,"EPHEMERIS_TYPE":0,"CLASSIFICATION_TYPE":"U","NORAD_CAT_ID":64772,"ELEMENT_SET_NO":999,"REV_AT_EPOCH":926,"BSTAR":0.001751878,"MEAN_MOTION_DOT":0.00070374,"MEAN_MOTION_DDOT":0},{"OBJECT_NAME":"STARLINK-34612","OBJECT_ID":"2025-147U","EPOCH":"2025-08-28T18:41:00.176064","MEAN_MOTION":15.39622192,"ECCENTRICITY":0.00010113,"INCLINATION":53.1606,"RA_OF_ASC_NODE":60.4087,"ARG_OF_PERICENTER":99.1066,"MEAN_ANOMALY":261.0054,"EPHEMERIS_TYPE":0,"CLASSIFICATION_TYPE":"U","NORAD_CAT_ID":64773,"ELEMENT_SET_NO":999,"REV_AT_EPOCH":919,"BSTAR":0.0013796344,"MEAN_MOTION_DOT":0.00055189,"MEAN_MOTION_DDOT":0},{"OBJECT_NAME":"STARLINK-34621","OBJECT_ID":"2025-147V","EPOCH":"2025-08-29T05:15:17.384544","MEAN_MOTION":15.39642707,"ECCENTRICITY":0.00012726,"INCLINATION":53.1611,"RA_OF_ASC_NODE":58.1794,"ARG_OF_PERICENTER":76.5061,"MEAN_ANOMALY":283.6086,"EPHEMERIS_TYPE":0,"CLASSIFICATION_TYPE":"U","NORAD_CAT_ID":64774,"ELEMENT_SET_NO":999,"REV_AT_EPOCH":919,"BSTAR":0.0019080892,"MEAN_MOTION_DOT":0.00076752,"MEAN_MOTION_DDOT":0},{"OBJECT_NAME":"STARLINK-34657","OBJECT_ID":"2025-147W","EPOCH":"2025-08-29T05:08:35.786112","MEAN_MOTION":15.39638586,"ECCENTRICITY":8.304e-5,"INCLINATION":53.161,"RA_OF_ASC_NODE":58.1477,"ARG_OF_PERICENTER":88.0082,"MEAN_ANOMALY":272.1018,"EPHEMERIS_TYPE":0,"CLASSIFICATION_TYPE":"U","NORAD_CAT_ID":64775,"ELEMENT_SET_NO":999,"REV_AT_EPOCH":926,"BSTAR":0.0017310766,"MEAN_MOTION_DOT":0.00069518,"MEAN_MOTION_DDOT":0},{"OBJECT_NAME":"STARLINK-34637","OBJECT_ID":"2025-147X","EPOCH":"2025-08-28T19:41:02.854752","MEAN_MOTION":15.39638269,"ECCENTRICITY":6.729e-5,"INCLINATION":53.1611,"RA_OF_ASC_NODE":59.9538,"ARG_OF_PERICENTER":89.8161,"MEAN_ANOMALY":270.2921,"EPHEMERIS_TYPE":0,"CLASSIFICATION_TYPE":"U","NORAD_CAT_ID":64776,"ELEMENT_SET_NO":999,"REV_AT_EPOCH":913,"BSTAR":0.0011649997,"MEAN_MOTION_DOT":0.00046512,"MEAN_MOTION_DDOT":0}]
